NORAD_CAT_ID,OBJECT_NAME,OBJECT_TYPE,EPOCH,MEAN_MOTION,ECCENTRICITY,INCLINATION,RA_OF_ASC_NODE,ARG_OF_PERICENTER,MEAN_ANOMALY,BSTAR,MEAN_MOTION_DOT,MEAN_MOTION_DDOT,TLE_LINE0,TLE_LINE1,TLE_LINE2,SEMIMAJOR_AXIS,PERIOD,APOGEE,PERIGEE,DECAYED
51129.0,STARLINK-3396,PAYLOAD,2022-03-15 02:00:01,15.59958039,0.000178,53.2173,1.0654,32.6391,55.5797,-0.0095213,-0.00716914,0.0,0 STARLINK-3396,1 51129U 22005AB  22074.08334491 -.00716914  00000-0 -95213-2 0  9996,2 51129  53.2173   1.0654 0001780  32.6391  55.5797 15.59958039  3675,6765.915,92.31,388.985,386.576,0.0
51129.0,STARLINK-3396,PAYLOAD,2022-03-15 20:00:01,15.5881052,0.0001537,53.2178,357.4332,38.4775,302.4613,-0.0099325,-0.00715764,0.0,0 STARLINK-3396,1 51129U 22005AB  22074.83334491 -.00715764  00000-0 -99325-2 0  9999,2 51129  53.2178 357.4332 0001537  38.4775 302.4613 15.58810520 10110,6769.235,92.378,392.141,390.06,0.0
51129.0,STARLINK-3396,PAYLOAD,2022-03-15 22:00:00,15.58682596,0.0001713,53.2177,357.0309,33.3383,55.4888,-0.0099816,-0.00715836,0.0,0 STARLINK-3396,1 51129U 22005AB  22074.91667824 -.00715836  00000-0 -99816-2 0  9992,2 51129  53.2177 357.0309 0001713  33.3383  55.4888 15.58682596  3687,6769.606,92.386,392.63,390.311,0.0
51129.0,STARLINK-3396,PAYLOAD,2022-03-16 14:00:01,15.57660516,0.0001488,53.2175,353.8087,47.5714,182.9853,-0.010309,-0.00711537,0.0,0 STARLINK-3396,1 51129U 22005AB  22075.58334491 -.00711537  00000-0 -10309-1 0  9990,2 51129  53.2175 353.8087 0001488  47.5714 182.9853 15.57660516  3704,6772.566999999999,92.446,395.44,393.424,0.0
51129.0,STARLINK-3396,PAYLOAD,2022-03-16 20:00:01,15.57278575,0.0001747,53.2176,352.6023,39.6091,153.4634,-0.01047,-0.00712298,0.0,0 STARLINK-3396,1 51129U 22005AB  22075.83334491 -.00712298  00000-0 -10470-1 0  9992,2 51129  53.2176 352.6023 0001747  39.6091 153.4634 15.57278575 10270,6773.674,92.469,396.723,394.356,0.0
51129.0,STARLINK-3396,PAYLOAD,2022-03-17 14:00:01,15.56130027,0.0001425,53.2174,348.9862,41.5861,36.9676,-0.010909,-0.00710935,0.0,0 STARLINK-3396,1 51129U 22005AB  22076.58334491 -.00710935  00000-0 -10909-1 0  9998,2 51129  53.2174 348.9862 0001425  41.5861  36.9676 15.56130027  3706,6777.007,92.537,399.837,397.906,0.0
51129.0,STARLINK-3396,PAYLOAD,2022-03-17 22:00:00,15.55620911,0.0001587,53.2175,347.38199999999995,43.9225,102.737,-0.011138,-0.00712143,0.0,0 STARLINK-3396,1 51129U 22005AB  22076.91667824 -.00712143  00000-0 -11138-1 0  9992,2 51129  53.2175 347.3820 0001587  43.9225 102.7370 15.55620911  3701,6778.485,92.568,401.426,399.275,0.0
51129.0,STARLINK-3396,PAYLOAD,2022-03-18 06:00:00,15.55110772,0.0001446,53.2173,345.779,52.9741,161.1785,-0.011334,-0.00711147,0.0,0 STARLINK-3396,1 51129U 22005AB  22077.25001157 -.00711147  00000-0 -11334-1 0  9992,2 51129  53.2173 345.7790 0001446  52.9741 161.1785 15.55110772 10496,6779.968000000003,92.598,402.81300000000016,400.852,0.0
51129.0,STARLINK-3396,PAYLOAD,2022-03-18 14:00:01,15.54600008,0.0001409999999999,53.2176,344.1743,48.813,232.2223,-0.011531,-0.00710067,0.0,0 STARLINK-3396,1 51129U 22005AB  22077.58334491 -.00710067  00000-0 -11531-1 0  9997,2 51129  53.2176 344.1743 0001410  48.8130 232.2223 15.54600008  3716,6781.453,92.628,404.274,402.361,0.0
51129.0,STARLINK-3396,PAYLOAD,2022-03-18 22:00:00,15.54092831,0.000144,53.2178,342.5742,44.2402,303.0616,-0.011832,-0.00714704,0.0,0 STARLINK-3396,1 51129U 22005AB  22077.91667824 -.00714704  00000-0 -11832-1 0  9999,2 51129  53.2178 342.5742 0001440  44.2402 303.0616 15.54092831  3761,6782.928000000001,92.659,405.77,403.816,0.0
51129.0,STARLINK-3396,PAYLOAD,2022-03-19 02:00:01,15.53836386,0.0001884,53.2177,341.7747,37.7327,162.5383,-0.011895,-0.00712104,0.0,0 STARLINK-3396,1 51129U 22005AB  22078.08335648 -.00712104  00000-0 -11895-1 0  9995,2 51129  53.2177 341.7747 0001884  37.7327 162.5383 15.53836386 10623,6783.674,92.674,406.817,404.261,0.0
51129.0,STARLINK-3396,PAYLOAD,2022-03-19 14:00:01,15.53071038,0.0001593,53.2174,339.3738,38.5972,79.4043,-0.012228,-0.00711802,0.0,0 STARLINK-3396,1 51129U 22005AB  22078.58334491 -.00711802  00000-0 -12228-1 0  9990,2 51129  53.2174 339.3738 0001593  38.5972  79.4043 15.53071038  3698,6785.903,92.72,408.849,406.687,0.0
51129.0,STARLINK-3396,PAYLOAD,2022-03-19 22:00:01,15.52559768,0.0001835,53.2175,337.7773,37.9737,144.5222,-0.012413,-0.00709507,0.0,0 STARLINK-3396,1 51129U 22005AB  22078.91668981 -.00709507  00000-0 -12413-1 0  9996,2 51129  53.2175 337.7773 0001835  37.9737 144.5222 15.52559768  3728,6787.392,92.75,410.503,408.012,0.0
51129.0,STARLINK-3396,PAYLOAD,2022-03-20 06:00:00,15.52053141,0.0001491,53.2171,336.1813,49.7608,196.4859,-0.012743,-0.00714578,0.0,0 STARLINK-3396,1 51129U 22005AB  22079.25001157 -.00714578  00000-0 -12743-1 0  9990,2 51129  53.2171 336.1813 0001491  49.7608 196.4859 15.52053141 10801,6788.869000000002,92.78,411.747,409.722,0.0
51129.0,STARLINK-3396,PAYLOAD,2022-03-20 14:00:01,15.51540144,0.0001499,53.2174,334.5842,42.649,266.8045,-0.012888,-0.00709873,0.0,0 STARLINK-3396,1 51129U 22005AB  22079.58334491 -.00709873  00000-0 -12888-1 0  9998,2 51129  53.2174 334.5842 0001499  42.6490 266.8045 15.51540144  3687,6790.366,92.811,413.249,411.213,0.0
51129.0,STARLINK-3396,PAYLOAD,2022-03-20 22:00:01,15.51032635,0.0001573,53.2174,332.9917,37.0535,335.0542,-0.013202,-0.00722824,0.0,0 STARLINK-3396,1 51129U 22005AB  22079.91668981 -.00722824  00000-0 -13202-1 0  9991,2 51129  53.2174 332.9917 0001573  37.0535 335.0542 15.51032635  3742,6791.847,92.841,414.78,412.643,0.0
51129.0,STARLINK-3396,PAYLOAD,2022-03-21 06:00:00,15.50521966,0.0001412,53.2171,331.3992,44.4186,29.6031,-0.013408,-0.00720922,0.0,0 STARLINK-3396,1 51129U 22005AB  22080.25001157 -.00720922  00000-0 -13408-1 0  9991,2 51129  53.2171 331.3992 0001412  44.4186  29.6031 15.50521966 10961,6793.3380000000025,92.872,416.162,414.244,0.0
51129.0,STARLINK-3396,PAYLOAD,2022-03-21 14:00:01,15.500122199999998,0.0001557,53.2173,329.8056,42.7723,92.6168,-0.013685,-0.0072246,0.0,0 STARLINK-3396,1 51129U 22005AB  22080.58334491 -.00722460  00000-0 -13685-1 0  9993,2 51129  53.2173 329.8056 0001557  42.7723  92.6168 15.50012220  3695,6794.8269999999975,92.902,417.75,415.634,0.0
51129.0,STARLINK-3396,PAYLOAD,2022-03-21 22:00:00,15.49458332,0.0001939,53.2174,328.2159,34.7156,161.4357,-0.01181,-0.00611578,0.0,0 STARLINK-3396,1 51129U 22005AB  22080.91667824 -.00611578  00000-0 -11810-1 0  9994,2 51129  53.2174 328.2159 0001939  34.7156 161.4357 15.49458332  3699,6796.446999999999,92.936,419.629,416.994,0.0
51129.0,STARLINK-3396,PAYLOAD,2022-03-22 06:00:00,15.48952569,0.0001530999999999,53.2172,326.6251,50.0129,206.2728,-0.0001641,-9.448e-05,0.0,0 STARLINK-3396,1 51129U 22005AB  22081.25001157 -.00009448  00000-0 -16410-3 0  9993,2 51129  53.2172 326.6251 0001531  50.0129 206.2728 15.48952569 11117,6797.926,92.966,420.832,418.75,0.0
51129.0,STARLINK-3396,PAYLOAD,2022-03-22 14:00:01,15.4889105,0.0001653,53.2176,325.0304,42.9382,273.173,0.001467,0.00080786,0.0,0 STARLINK-3396,1 51129U 22005AB  22081.58334491  .00080786  00000-0  14670-2 0  9996,2 51129  53.2176 325.0304 0001653  42.9382 273.1730 15.48891050  3719,6798.106,92.97,421.095,418.847,0.0
51129.0,STARLINK-3396,PAYLOAD,2022-03-22 20:00:01,15.49042932,0.0001648,53.218,323.8314,43.0589,227.9571,0.00065777,0.00035961,0.0,0 STARLINK-3396,1 51129U 22005AB  22081.83334491  .00035961  00000-0  65777-3 0  9994,2 51129  53.2180 323.8314 0001648  43.0589 227.9571 15.49042932 11207,6797.6619999999975,92.961,420.647,418.406,0.0
51129.0,STARLINK-3396,PAYLOAD,2022-03-22 22:00:01,15.49047896,0.0001709,53.2179,323.4341,41.5581,334.4984,0.00074521,0.00040833,0.0,0 STARLINK-3396,1 51129U 22005AB  22081.91668981  .00040833  00000-0  74521-3 0  9998,2 51129  53.2179 323.4341 0001709  41.5581 334.4984 15.49047896  3706,6797.647,92.96,420.674,418.35,0.0
51129.0,STARLINK-3396,PAYLOAD,2022-03-23 06:00:00,15.49125872,0.0001658,53.2172,321.8429,36.6217,39.3038,-0.00013619,-7.965e-05,0.0,0 STARLINK-3396,1 51129U 22005AB  22082.25001157 -.00007965  00000-0 -13619-3 0  9994,2 51129  53.2172 321.8429 0001658  36.6217  39.3038 15.49125872 11275,6797.419,92.956,420.411,418.157,0.0
51129.0,STARLINK-3396,PAYLOAD,2022-03-23 14:00:01,15.49139739,0.0001398,53.2174,320.2501,40.3473,95.5816,-0.0012892,-0.00071075,0.0,0 STARLINK-3396,1 51129U 22005AB  22082.58334491 -.00071075  00000-0 -12892-2 0  9994,2 51129  53.2174 320.2501 0001398  40.3473  95.5816 15.49139739  3713,6797.378000000002,92.955,420.194,418.293,0.0
51129.0,STARLINK-3396,PAYLOAD,2022-03-23 20:00:01,15.49163223,0.0001486999999999,53.2176,319.0579,34.2425,56.6786,-0.0053801,-0.00287451,0.0,0 STARLINK-3396,1 51129U 22005AB  22082.83334491 -.00287451  00000-0 -53801-2 0  9994,2 51129  53.2176 319.0579 0001487  34.2425  56.6786 15.49163223 11363,6797.31,92.953,420.185,418.164,0.0
51129.0,STARLINK-3396,PAYLOAD,2022-03-23 22:00:00,15.49104363,0.000154,53.2175,318.6605,33.7261,162.2006,-0.0049057,-0.0026243,0.0,0 STARLINK-3396,1 51129U 22005AB  22082.91667824 -.00262430  00000-0 -49057-2 0  9990,2 51129  53.2175 318.6605 0001540  33.7261 162.2006 15.49104363  3707,6797.482,92.957,420.394,418.3,0.0
51129.0,STARLINK-3396,PAYLOAD,2022-03-24 06:00:00,15.48912731,0.0001525,53.2173,317.0693,28.9927,226.7805,-0.0021352,-0.00115832,0.0,0 STARLINK-3396,1 51129U 22005AB  22083.25001157 -.00115832  00000-0 -21352-2 0  9990,2 51129  53.2173 317.0693 0001525  28.9927 226.7805 15.48912731 11429,6798.042,92.968,420.944,418.871,0.0
51129.0,STARLINK-3396,PAYLOAD,2022-03-24 14:00:01,15.48815586,0.0001491,53.2177,315.4770000000001,40.7088,274.7668,0.0010876,0.00059454,0.0,0 STARLINK-3396,1 51129U 22005AB  22083.58334491  .00059454  00000-0  10876-2 0  9990,2 51129  53.2177 315.4770 0001491  40.7088 274.7668 15.48815586  3671,6798.3269999999975,92.974,421.205,419.17800000000005,0.0
